KUIPER-00071            
1 64818U 25151C   26015.84746588  .00001727  00000+0  25565-3 0  9997
2 64818  51.8995 176.7440 0007559  65.2017 294.9731 14.79929403 27442
KUIPER-00072            
1 64819U 25151D   26015.76724293  .00002537  00000+0  34807-3 0  9997
2 64819  51.8976 157.0935 0000705  88.3577 271.7467 14.81583377 27714
KUIPER-00073            
1 64820U 25151E   26015.81413859 -.00045953  00000+0 -60645-2 0  9997
2 64820  51.8997 176.8905 0012922  82.6835 277.5595 14.79695842 28628
KUIPER-00074            
1 64821U 25151F   26015.62493397  .00006289  00000+0  85261-3 0  9991
2 64821  51.9006 165.2439 0013351  95.8411 264.4074 14.79924042 27586
KUIPER-00075            
1 64822U 25151G   26015.71849534  .00038693  00000+0  97182-3 0  9999
2 64822  51.8731 119.2370 0003378  89.8128 270.3247 15.39606141 28235
KUIPER-00076            
1 64823U 25151H   26015.82484568 -.00048943  00000+0 -64726-2 0  9992
2 64823  51.9003 166.8539 0005182  95.9107 264.2446 14.79694765 27586
KUIPER-00077            
1 64824U 25151J   26015.61677205  .00002153  00000+0  31133-3 0  9990
2 64824  51.9012 172.7813 0006469  68.1743 291.9907 14.79946144 27484
KUIPER-00078            
1 64825U 25151K   26015.85586722 -.00004120  00000+0 -51213-3 0  9999
2 64825  51.8990 169.2163 0003335 130.9492 229.1759 14.79894041 27550
