<?xml version="1.0" encoding="UTF-8"?>
<ndm xmlns:xsi="http://www.w3.org/2001/XMLSchema-instance" xsi:noNamespaceSchemaLocation="https://sanaregistry.org/r/ndmxml_unqualified/ndmxml-2.0.0-master-2.0.xsd">
<omm id="CCSDS_OMM_VERS" version="2.0">
<header><CREATION_DATE/><ORIGINATOR/></header><body><segment><metadata><OBJECT_NAME>KUIPER-00071</OBJECT_NAME><OBJECT_ID>2025-151C</OBJECT_ID><CENTER_NAME>EARTH</CENTER_NAME><REF_FRAME>TEME</REF_FRAME><TIME_SYSTEM>UTC</TIME_SYSTEM><MEAN_ELEMENT_THEORY>SGP4</MEAN_ELEMENT_THEORY></metadata><data><meanElements><EPOCH>2026-01-15T20:20:21.052032</EPOCH><MEAN_MOTION>14.79929403</MEAN_MOTION><ECCENTRICITY>.0007559</ECCENTRICITY><INCLINATION>51.8995</INCLINATION><RA_OF_ASC_NODE>176.7440</RA_OF_ASC_NODE><ARG_OF_PERICENTER>65.2017</ARG_OF_PERICENTER><MEAN_ANOMALY>294.9731</MEAN_ANOMALY></meanElements><tleParameters><EPHEMERIS_TYPE>0</EPHEMERIS_TYPE><CLASSIFICATION_TYPE>U</CLASSIFICATION_TYPE><NORAD_CAT_ID>64818</NORAD_CAT_ID><ELEMENT_SET_NO>999</ELEMENT_SET_NO><REV_AT_EPOCH>2744</REV_AT_EPOCH><BSTAR>.25565E-3</BSTAR><MEAN_MOTION_DOT>.1727E-4</MEAN_MOTION_DOT><MEAN_MOTION_DDOT>0</MEAN_MOTION_DDOT></tleParameters></data></segment></body></omm>
<omm id="CCSDS_OMM_VERS" version="2.0">
<header><CREATION_DATE/><ORIGINATOR/></header><body><segment><metadata><OBJECT_NAME>KUIPER-00072</OBJECT_NAME><OBJECT_ID>2025-151D</OBJECT_ID><CENTER_NAME>EARTH</CENTER_NAME><REF_FRAME>TEME</REF_FRAME><TIME_SYSTEM>UTC</TIME_SYSTEM><MEAN_ELEMENT_THEORY>SGP4</MEAN_ELEMENT_THEORY></metadata><data><meanElements><EPOCH>2026-01-15T18:24:49.789152</EPOCH><MEAN_MOTION>14.81583377</MEAN_MOTION><ECCENTRICITY>.0000705</ECCENTRICITY><INCLINATION>51.8976</INCLINATION><RA_OF_ASC_NODE>157.0935</RA_OF_ASC_NODE><ARG_OF_PERICENTER>88.3577</ARG_OF_PERICENTER><MEAN_ANOMALY>271.7467</MEAN_ANOMALY></meanElements><tleParameters><EPHEMERIS_TYPE>0</EPHEMERIS_TYPE><CLASSIFICATION_TYPE>U</CLASSIFICATION_TYPE><NORAD_CAT_ID>64819</NORAD_CAT_ID><ELEMENT_SET_NO>999</ELEMENT_SET_NO><REV_AT_EPOCH>2771</REV_AT_EPOCH><BSTAR>.34807E-3</BSTAR><MEAN_MOTION_DOT>.2537E-4</MEAN_MOTION_DOT><MEAN_MOTION_DDOT>0</MEAN_MOTION_DDOT></tleParameters></data></segment></body></omm>
<omm id="CCSDS_OMM_VERS" version="2.0">
<header><CREATION_DATE/><ORIGINATOR/></header><body><segment><metadata><OBJECT_NAME>KUIPER-00073</OBJECT_NAME><OBJECT_ID>2025-151E</OBJECT_ID><CENTER_NAME>EARTH</CENTER_NAME><REF_FRAME>TEME</REF_FRAME><TIME_SYSTEM>UTC</TIME_SYSTEM><MEAN_ELEMENT_THEORY>SGP4</MEAN_ELEMENT_THEORY></metadata><data><meanElements><EPOCH>2026-01-15T19:32:21.574176</EPOCH><MEAN_MOTION>14.79695842</MEAN_MOTION><ECCENTRICITY>.0012922</ECCENTRICITY><INCLINATION>51.8997</INCLINATION><RA_OF_ASC_NODE>176.8905</RA_OF_ASC_NODE><ARG_OF_PERICENTER>82.6835</ARG_OF_PERICENTER><MEAN_ANOMALY>277.5595</MEAN_ANOMALY></meanElements><tleParameters><EPHEMERIS_TYPE>0</EPHEMERIS_TYPE><CLASSIFICATION_TYPE>U</CLASSIFICATION_TYPE><NORAD_CAT_ID>64820</NORAD_CAT_ID><ELEMENT_SET_NO>999</ELEMENT_SET_NO><REV_AT_EPOCH>2862</REV_AT_EPOCH><BSTAR>-.60645E-2</BSTAR><MEAN_MOTION_DOT>-.45953E-3</MEAN_MOTION_DOT><MEAN_MOTION_DDOT>0</MEAN_MOTION_DDOT></tleParameters></data></segment></body></omm>
<omm id="CCSDS_OMM_VERS" version="2.0">
<header><CREATION_DATE/><ORIGINATOR/></header><body><segment><metadata><OBJECT_NAME>KUIPER-00074</OBJECT_NAME><OBJECT_ID>2025-151F</OBJECT_ID><CENTER_NAME>EARTH</CENTER_NAME><REF_FRAME>TEME</REF_FRAME><TIME_SYSTEM>UTC</TIME_SYSTEM><MEAN_ELEMENT_THEORY>SGP4</MEAN_ELEMENT_THEORY></metadata><data><meanElements><EPOCH>2026-01-15T14:59:54.295008</EPOCH><MEAN_MOTION>14.79924042</MEAN_MOTION><ECCENTRICITY>.0013351</ECCENTRICITY><INCLINATION>51.9006</INCLINATION><RA_OF_ASC_NODE>165.2439</RA_OF_ASC_NODE><ARG_OF_PERICENTER>95.8411</ARG_OF_PERICENTER><MEAN_ANOMALY>264.4074</MEAN_ANOMALY></meanElements><tleParameters><EPHEMERIS_TYPE>0</EPHEMERIS_TYPE><CLASSIFICATION_TYPE>U</CLASSIFICATION_TYPE><NORAD_CAT_ID>64821</NORAD_CAT_ID><ELEMENT_SET_NO>999</ELEMENT_SET_NO><REV_AT_EPOCH>2758</REV_AT_EPOCH><BSTAR>.85261E-3</BSTAR><MEAN_MOTION_DOT>.6289E-4</MEAN_MOTION_DOT><MEAN_MOTION_DDOT>0</MEAN_MOTION_DDOT></tleParameters></data></segment></body></omm>
<omm id="CCSDS_OMM_VERS" version="2.0">
<header><CREATION_DATE/><ORIGINATOR/></header><body><segment><metadata><OBJECT_NAME>KUIPER-00075</OBJECT_NAME><OBJECT_ID>2025-151G</OBJECT_ID><CENTER_NAME>EARTH</CENTER_NAME><REF_FRAME>TEME</REF_FRAME><TIME_SYSTEM>UTC</TIME_SYSTEM><MEAN_ELEMENT_THEORY>SGP4</MEAN_ELEMENT_THEORY></metadata><data><meanElements><EPOCH>2026-01-15T17:14:37.997376</EPOCH><MEAN_MOTION>15.39606141</MEAN_MOTION><ECCENTRICITY>.0003378</ECCENTRICITY><INCLINATION>51.8731</INCLINATION><RA_OF_ASC_NODE>119.2370</RA_OF_ASC_NODE><ARG_OF_PERICENTER>89.8128</ARG_OF_PERICENTER><MEAN_ANOMALY>270.3247</MEAN_ANOMALY></meanElements><tleParameters><EPHEMERIS_TYPE>0</EPHEMERIS_TYPE><CLASSIFICATION_TYPE>U</CLASSIFICATION_TYPE><NORAD_CAT_ID>64822</NORAD_CAT_ID><ELEMENT_SET_NO>999</ELEMENT_SET_NO><REV_AT_EPOCH>2823</REV_AT_EPOCH><BSTAR>.97182E-3</BSTAR><MEAN_MOTION_DOT>.38693E-3</MEAN_MOTION_DOT><MEAN_MOTION_DDOT>0</MEAN_MOTION_DDOT></tleParameters></data></segment></body></omm>
<omm id="CCSDS_OMM_VERS" version="2.0">
<header><CREATION_DATE/><ORIGINATOR/></header><body><segment><metadata><OBJECT_NAME>KUIPER-00076</OBJECT_NAME><OBJECT_ID>2025-151H</OBJECT_ID><CENTER_NAME>EARTH</CENTER_NAME><REF_FRAME>TEME</REF_FRAME><TIME_SYSTEM>UTC</TIME_SYSTEM><MEAN_ELEMENT_THEORY>SGP4</MEAN_ELEMENT_THEORY></metadata><data><meanElements><EPOCH>2026-01-15T19:47:46.666752</EPOCH><MEAN_MOTION>14.79694765</MEAN_MOTION><ECCENTRICITY>.0005182</ECCENTRICITY><INCLINATION>51.9003</INCLINATION><RA_OF_ASC_NODE>166.8539</RA_OF_ASC_NODE><ARG_OF_PERICENTER>95.9107</ARG_OF_PERICENTER><MEAN_ANOMALY>264.2446</MEAN_ANOMALY></meanElements><tleParameters><EPHEMERIS_TYPE>0</EPHEMERIS_TYPE><CLASSIFICATION_TYPE>U</CLASSIFICATION_TYPE><NORAD_CAT_ID>64823</NORAD_CAT_ID><ELEMENT_SET_NO>999</ELEMENT_SET_NO><REV_AT_EPOCH>2758</REV_AT_EPOCH><BSTAR>-.64726E-2</BSTAR><MEAN_MOTION_DOT>-.48943E-3</MEAN_MOTION_DOT><MEAN_MOTION_DDOT>0</MEAN_MOTION_DDOT></tleParameters></data></segment></body></omm>
<omm id="CCSDS_OMM_VERS" version="2.0">
<header><CREATION_DATE/><ORIGINATOR/></header><body><segment><metadata><OBJECT_NAME>KUIPER-00077</OBJECT_NAME><OBJECT_ID>2025-151J</OBJECT_ID><CENTER_NAME>EARTH</CENTER_NAME><REF_FRAME>TEME</REF_FRAME><TIME_SYSTEM>UTC</TIME_SYSTEM><MEAN_ELEMENT_THEORY>SGP4</MEAN_ELEMENT_THEORY></metadata><data><meanElements><EPOCH>2026-01-15T14:48:09.105120</EPOCH><MEAN_MOTION>14.79946144</MEAN_MOTION><ECCENTRICITY>.0006469</ECCENTRICITY><INCLINATION>51.9012</INCLINATION><RA_OF_ASC_NODE>172.7813</RA_OF_ASC_NODE><ARG_OF_PERICENTER>68.1743</ARG_OF_PERICENTER><MEAN_ANOMALY>291.9907</MEAN_ANOMALY></meanElements><tleParameters><EPHEMERIS_TYPE>0</EPHEMERIS_TYPE><CLASSIFICATION_TYPE>U</CLASSIFICATION_TYPE><NORAD_CAT_ID>64824</NORAD_CAT_ID><ELEMENT_SET_NO>999</ELEMENT_SET_NO><REV_AT_EPOCH>2748</REV_AT_EPOCH><BSTAR>.31133E-3</BSTAR><MEAN_MOTION_DOT>.2153E-4</MEAN_MOTION_DOT><MEAN_MOTION_DDOT>0</MEAN_MOTION_DDOT></tleParameters></data></segment></body></omm>
<omm id="CCSDS_OMM_VERS" version="2.0">
<header><CREATION_DATE/><ORIGINATOR/></header><body><segment><metadata><OBJECT_NAME>KUIPER-00078</OBJECT_NAME><OBJECT_ID>2025-151K</OBJECT_ID><CENTER_NAME>EARTH</CENTER_NAME><REF_FRAME>TEME</REF_FRAME><TIME_SYSTEM>UTC</TIME_SYSTEM><MEAN_ELEMENT_THEORY>SGP4</MEAN_ELEMENT_THEORY></metadata><data><meanElements><EPOCH>2026-01-15T20:32:26.927808</EPOCH><MEAN_MOTION>14.79894041</MEAN_MOTION><ECCENTRICITY>.0003335</ECCENTRICITY><INCLINATION>51.8990</INCLINATION><RA_OF_ASC_NODE>169.2163</RA_OF_ASC_NODE><ARG_OF_PERICENTER>130.9492</ARG_OF_PERICENTER><MEAN_ANOMALY>229.1759</MEAN_ANOMALY></meanElements><tleParameters><EPHEMERIS_TYPE>0</EPHEMERIS_TYPE><CLASSIFICATION_TYPE>U</CLASSIFICATION_TYPE><NORAD_CAT_ID>64825</NORAD_CAT_ID><ELEMENT_SET_NO>999</ELEMENT_SET_NO><REV_AT_EPOCH>2755</REV_AT_EPOCH><BSTAR>-.51213E-3</BSTAR><MEAN_MOTION_DOT>-.412E-4</MEAN_MOTION_DOT><MEAN_MOTION_DDOT>0</MEAN_MOTION_DDOT></tleParameters></data></segment></body></omm>

</ndm>
